{
    "links": {
        "self": "http://www.neowsapp.com/rest/v1/neo/3781873?api_key=iIulBulltgU6a56xZRHN4H3l9WmuAYTsLGpBGhQ2"
    },
    "id": "3781873",
    "neo_reference_id": "3781873",
    "name": "(2017 SJ14)",
    "designation": "2017 SJ14",
    "nasa_jpl_url": "http://ssd.jpl.nasa.gov/sbdb.cgi?sstr=3781873",
    "absolute_magnitude_h": 24.2,
    "estimated_diameter": {
        "kilometers": {
            "estimated_diameter_min": 0.0384197891,
            "estimated_diameter_max": 0.0859092601
        },
        "meters": {
            "estimated_diameter_min": 38.4197891064,
            "estimated_diameter_max": 85.9092601232
        },
        "miles": {
            "estimated_diameter_min": 0.0238729428,
            "estimated_diameter_max": 0.0533815229
        },
        "feet": {
            "estimated_diameter_min": 126.0491808919,
            "estimated_diameter_max": 281.8545369825
        }
    },
    "is_potentially_hazardous_asteroid": false,
    "close_approach_data": [
        {
            "close_approach_date": "1998-10-25",
            "close_approach_date_full": "1998-Oct-25 20:12",
            "epoch_date_close_approach": 909346320000,
            "relative_velocity": {
                "kilometers_per_second": "3.875279138",
                "kilometers_per_hour": "13951.0048967249",
                "miles_per_hour": "8668.6119037455"
            },
            "miss_distance": {
                "astronomical": "0.1932027696",
                "lunar": "75.1558773744",
                "kilometers": "28902722.810260752",
                "miles": "17959319.1696002976"
            },
            "orbiting_body": "Earth"
        },
        {
            "close_approach_date": "2017-10-26",
            "close_approach_date_full": "2017-Oct-26 15:43",
            "epoch_date_close_approach": 1509032580000,
            "relative_velocity": {
                "kilometers_per_second": "4.0974781717",
                "kilometers_per_hour": "14750.9214180895",
                "miles_per_hour": "9165.6489222568"
            },
            "miss_distance": {
                "astronomical": "0.1949070504",
                "lunar": "75.8188426056",
                "kilometers": "29157679.587822648",
                "miles": "18117741.9650146224"
            },
            "orbiting_body": "Earth"
        },
        {
            "close_approach_date": "2036-10-25",
            "close_approach_date_full": "2036-Oct-25 00:29",
            "epoch_date_close_approach": 2108507340000,
            "relative_velocity": {
                "kilometers_per_second": "5.7290877927",
                "kilometers_per_hour": "20624.7160537615",
                "miles_per_hour": "12815.3964835164"
            },
            "miss_distance": {
                "astronomical": "0.3176235062",
                "lunar": "123.5555439118",
                "kilometers": "47515799.989451794",
                "miles": "29524949.0233669972"
            },
            "orbiting_body": "Earth"
        }
    ],
    "orbital_data": {
        "orbit_id": "4",
        "orbit_determination_date": "2017-11-16 07:20:27",
        "first_observation_date": "2017-09-14",
        "last_observation_date": "2017-11-15",
        "data_arc_in_days": 62,
        "observations_used": 32,
        "orbit_uncertainty": "6",
        "minimum_orbit_intersection": ".185477",
        "jupiter_tisserand_invariant": "3.307",
        "epoch_osculation": "2459000.5",
        "eccentricity": ".5164701459010488",
        "semi_major_axis": "2.436405425242169",
        "inclination": "1.0003700562311",
        "ascending_node_longitude": "158.5160390787417",
        "orbital_period": "1389.065623981147",
        "perihelion_distance": "1.178074759793239",
        "perihelion_argument": "236.3871460791799",
        "aphelion_distance": "3.694736090691099",
        "perihelion_time": "2459446.706776053693",
        "mean_anomaly": "244.3579190168559",
        "mean_motion": ".2591670211866723",
        "equinox": "J2000",
        "orbit_class": {
            "orbit_class_type": "AMO",
            "orbit_class_description": "Near-Earth asteroid orbits similar to that of 1221 Amor",
            "orbit_class_range": "1.017 AU < q (perihelion) < 1.3 AU"
        }
    },
    "is_sentry_object": false
}